
# Worst residual: 61.34 km
# MJD 60249.000000 (2023 Nov  1  0:00)
A10ZsPt = A10Zv6L
1 79949U 23999ZYY 23305.49919926  .00000000  00000-0  00000-0 0 22346
2 79949 039.1134 014.4213 6626901 238.3543 145.6510 01.01802861    03

# Worst residual: 50.11 km
# MJD 60250.000000 (2023 Nov  2  0:00)
A10ZsPt = A10Zv6L
1 79949U 23999ZYY 23306.49919926  .00000000  00000-0  00000-0 0 22347
2 79949 039.1078 014.3718 6652662 238.7814 152.1940 01.01851372    08

# Worst residual: 40.76 km
# MJD 60251.000000 (2023 Nov  3  0:00)
A10ZsPt = A10Zv6L
1 79949U 23999ZYY 23307.49919926  .00000000  00000-0  00000-0 0 22348
2 79949 039.1023 014.3205 6677297 239.2063 158.9333 01.01898685    00

# Worst residual: 47.22 km
# MJD 60252.000000 (2023 Nov  4  0:00)
A10ZsPt = A10Zv6L
1 79949U 23999ZYY 23308.49919926  .00000000  00000-0  00000-0 0 22349
2 79949 039.0982 014.2663 6701426 239.6284 165.8746 01.01949372    06

# Worst residual: 53.49 km
# MJD 60253.000000 (2023 Nov  5  0:00)
A10ZsPt = A10Zv6L
1 79949U 23999ZYY 23309.49919926  .00000000  00000-0  00000-0 0 22340
2 79949 039.0912 014.2093 6725548 240.0487 173.0050 01.01994251    03

# Worst residual: 58.52 km
# MJD 60254.000000 (2023 Nov  6  0:00)
A10ZsPt = A10Zv6L
1 79949U 23999ZYY 23310.49919926  .00000000  00000-0  00000-0 0 22342
2 79949 039.0862 014.1488 6749429 240.4671 180.3199 01.02042536    03

# Worst residual: 60.75 km
# MJD 60255.000000 (2023 Nov  7  0:00)
A10ZsPt = A10Zv6L
1 79949U 23999ZYY 23311.49919926  .00000000  00000-0  00000-0 0 22343
2 79949 039.0774 014.0812 6773948 240.8979 187.8058 01.02092865    09

# Worst residual: 59.36 km
# MJD 60256.000000 (2023 Nov  8  0:00)
A10ZsPt = A10Zv6L
1 79949U 23999ZYY 23312.49919926  .00000000  00000-0  00000-0 0 22344
2 79949 039.0690 014.0140 6798420 241.3277 195.4531 01.02145621    09

# Worst residual: 53.01 km
# MJD 60257.000000 (2023 Nov  9  0:00)
A10ZsPt = A10Zv6L
1 79949U 23999ZYY 23313.49919926  .00000000  00000-0  00000-0 0 22345
2 79949 039.0596 013.9427 6822796 241.7607 203.2597 01.02198806    08

# Worst residual: 49.50 km
# MJD 60258.000000 (2023 Nov 10  0:00)
A10ZsPt = A10Zv6L
1 79949U 23999ZYY 23314.49919926  .00000000  00000-0  00000-0 0 22346
2 79949 039.0493 013.8679 6847608 242.2023 211.2012 01.02259883    03

# Worst residual: 67.06 km
# MJD 60259.000000 (2023 Nov 11  0:00)
A10ZsPt = A10Zv6L
1 79949U 23999ZYY 23315.49919926  .00000000  00000-0  00000-0 0 22347
2 79949 039.0378 013.7884 6872714 242.6518 219.2699 01.02319843    03

# Worst residual: 80.03 km
# MJD 60260.000000 (2023 Nov 12  0:00)
A10ZsPt = A10Zv6L
1 79949U 23999ZYY 23316.49919926  .00000000  00000-0  00000-0 0 22348
2 79949 039.0251 013.7034 6897025 243.1138 227.4397 01.02372533    07

# Worst residual: 93.81 km
# MJD 60261.000000 (2023 Nov 13  0:00)
A10ZsPt = A10Zv6L
1 79949U 23999ZYY 23317.49919926  .00000000  00000-0  00000-0 0 22349
2 79949 039.0115 013.6139 6920081 243.5848 235.6975 01.02415577    01

# Worst residual: 102.51 km
# MJD 60262.000000 (2023 Nov 14  0:00)
A10ZsPt = A10Zv6L
1 79949U 23999ZYY 23318.49919926  .00000000  00000-0  00000-0 0 22340
2 79949 038.9972 013.5205 6941914 244.0617 244.0235 01.02447493    06

# Worst residual: 106.55 km
# MJD 60263.000000 (2023 Nov 15  0:00)
A10ZsPt = A10Zv6L
1 79949U 23999ZYY 23319.49919926  .00000000  00000-0  00000-0 0 22341
2 79949 038.9817 013.4231 6963162 244.5429 252.3813 01.02466830    07

# Worst residual: 110.81 km
# MJD 60264.000000 (2023 Nov 16  0:00)
A10ZsPt = A10Zv6L
1 79949U 23999ZYY 23320.49919926  .00000000  00000-0  00000-0 0 22343
2 79949 038.9650 013.3207 6984574 245.0291 260.7428 01.02488202    09

# Worst residual: 115.94 km
# MJD 60265.000000 (2023 Nov 17  0:00)
A10ZsPt = A10Zv6L
1 79949U 23999ZYY 23321.49919926  .00000000  00000-0  00000-0 0 22344
2 79949 038.9476 013.2136 7005653 245.5233 269.0941 01.02510781    09

# Worst residual: 119.64 km
# MJD 60266.000000 (2023 Nov 18  0:00)
A10ZsPt = A10Zv6L
1 79949U 23999ZYY 23322.49919926  .00000000  00000-0  00000-0 0 22345
2 79949 038.9297 013.1022 7025843 246.0246 277.4357 01.02532157    01

# Worst residual: 119.51 km
# MJD 60267.000000 (2023 Nov 19  0:00)
A10ZsPt = A10Zv6L
1 79949U 23999ZYY 23323.49919926  .00000000  00000-0  00000-0 0 22346
2 79949 038.9113 012.9870 7044705 246.5291 285.7768 01.02551437    09

# Worst residual: 112.58 km
# MJD 60268.000000 (2023 Nov 20  0:00)
A10ZsPt = A10Zv6L
1 79949U 23999ZYY 23324.49919926  .00000000  00000-0  00000-0 0 22347
2 79949 038.8985 012.8763 7061853 247.0255 294.1276 01.02576028    05

# Worst residual: 104.78 km
# MJD 60269.000000 (2023 Nov 21  0:00)
A10ZsPt = A10Zv6L
1 79949U 23999ZYY 23325.49919926  .00000000  00000-0  00000-0 0 22348
2 79949 038.8798 012.7561 7079769 247.5199 302.4985 01.02592373    00

# Worst residual: 103.32 km
# MJD 60270.000000 (2023 Nov 22  0:00)
A10ZsPt = A10Zv6L
1 79949U 23999ZYY 23326.49919926  .00000000  00000-0  00000-0 0 22349
2 79949 038.8525 012.6126 7097144 248.0399 310.8610 01.02611290    07

# Worst residual: 98.31 km
# MJD 60271.000000 (2023 Nov 23  0:00)
A10ZsPt = A10Zv6L
1 79949U 23999ZYY 23327.49919926  .00000000  00000-0  00000-0 0 22340
2 79949 038.8325 012.4799 7113725 248.5476 319.2249 01.02631778    08

# Worst residual: 92.44 km
# MJD 60272.000000 (2023 Nov 24  0:00)
A10ZsPt = A10Zv6L
1 79949U 23999ZYY 23328.49919926  .00000000  00000-0  00000-0 0 22341
2 79949 038.8124 012.3448 7129639 249.0542 327.5940 01.02649199    02

# Worst residual: 81.44 km
# MJD 60273.000000 (2023 Nov 25  0:00)
A10ZsPt = A10Zv6L
1 79949U 23999ZYY 23329.49919926  .00000000  00000-0  00000-0 0 22342
2 79949 038.7901 012.2033 7144857 249.5602 335.9739 01.02671687    00

# Worst residual: 77.80 km
# MJD 60274.000000 (2023 Nov 26  0:00)
A10ZsPt = A10Zv6L
1 79949U 23999ZYY 23330.49919926  .00000000  00000-0  00000-0 0 22344
2 79949 038.7701 012.0597 7161127 250.0709 344.3514 01.02675678    04

# Worst residual: 71.73 km
# MJD 60275.000000 (2023 Nov 27  0:00)
A10ZsPt = A10Zv6L
1 79949U 23999ZYY 23331.49919926  .00000000  00000-0  00000-0 0 22345
2 79949 038.7480 011.9089 7176451 250.5902 352.7181 01.02684141    06

# Worst residual: 64.49 km
# MJD 60276.000000 (2023 Nov 28  0:00)
A10ZsPt = A10Zv6L
1 79949U 23999ZYY 23332.49919926  .00000000  00000-0  00000-0 0 22346
2 79949 038.7311 011.7687 7190415 251.1031 001.0728 01.02697829    05

# Worst residual: 63.35 km
# MJD 60277.000000 (2023 Nov 29  0:00)
A10ZsPt = A10Zv6L
1 79949U 23999ZYY 23333.49919926  .00000000  00000-0  00000-0 0 22347
2 79949 038.7034 011.5994 7204327 251.6359 009.4378 01.02679399    07

# Worst residual: 74.63 km
# MJD 60278.000000 (2023 Nov 30  0:00)
A10ZsPt = A10Zv6L
1 79949U 23999ZYY 23334.49919926  .00000000  00000-0  00000-0 0 22348
2 79949 038.6819 011.4373 7215897 252.1656 017.8138 01.02677942    06
